[{"OBJECT_NAME":"STARLINK-30487","OBJECT_ID":"2023-147M","EPOCH":"2026-03-09T01:08:00.996864","MEAN_MOTION":15.02542965,"ECCENTRICITY":4.95e-6,"INCLINATION":43.0054,"RA_OF_ASC_NODE":329.332,"ARG_OF_PERICENTER":222.8366,"MEAN_ANOMALY":137.2472,"EPHEMERIS_TYPE":0,"CLASSIFICATION_TYPE":"U","NORAD_CAT_ID":57924,"ELEMENT_SET_NO":999,"REV_AT_EPOCH":13652,"BSTAR":8.0172178e-5,"MEAN_MOTION_DOT":8.8e-6,"MEAN_MOTION_DDOT":0},{"OBJECT_NAME":"SEDNA-1","OBJECT_ID":"2024-149DS","EPOCH":"2026-03-09T18:22:48.434304","MEAN_MOTION":15.05597965,"ECCENTRICITY":0.00083444,"INCLINATION":97.6673,"RA_OF_ASC_NODE":149.7617,"ARG_OF_PERICENTER":330.8481,"MEAN_ANOMALY":29.2278,"EPHEMERIS_TYPE":0,"CLASSIFICATION_TYPE":"U","NORAD_CAT_ID":60580,"ELEMENT_SET_NO":999,"REV_AT_EPOCH":8542,"BSTAR":0.00060833619,"MEAN_MOTION_DOT":8.721e-5,"MEAN_MOTION_DDOT":0}]
